[{"OBJECT_NAME":"STARLINK-36330","OBJECT_ID":"2026-026S","EPOCH":"2026-03-09T22:00:01.999584","MEAN_MOTION":15.4909485,"ECCENTRICITY":0.00019244,"INCLINATION":97.2845,"RA_OF_ASC_NODE":123.5221,"ARG_OF_PERICENTER":87.437,"MEAN_ANOMALY":168.7589,"EPHEMERIS_TYPE":0,"CLASSIFICATION_TYPE":"U","NORAD_CAT_ID":67737,"ELEMENT_SET_NO":999,"REV_AT_EPOCH":535,"BSTAR":-0.039487323,"MEAN_MOTION_DOT":-0.01922252,"MEAN_MOTION_DDOT":0},{"OBJECT_NAME":"KSLV-II R\/B","OBJECT_ID":"2023-072H","EPOCH":"2026-03-09T20:13:26.441760","MEAN_MOTION":15.33109439,"ECCENTRICITY":0.00241884,"INCLINATION":97.4991,"RA_OF_ASC_NODE":274.152,"ARG_OF_PERICENTER":318.2938,"MEAN_ANOMALY":41.646,"EPHEMERIS_TYPE":0,"CLASSIFICATION_TYPE":"U","NORAD_CAT_ID":56750,"ELEMENT_SET_NO":999,"REV_AT_EPOCH":15516,"BSTAR":0.00028309532,"MEAN_MOTION_DOT":9.057e-5,"MEAN_MOTION_DDOT":0}]
